index,Area,Branch,Address,lat,lng
0,강남구,강남YMCA점,서울 강남구 논현동 230-2,37.5099018,127.0357061
1,강남구,강남구청역아이티웨딩점,"서울 강남구 학동로 338 (논현동, 강남파라곤)",37.5164665,127.0404191
2,강남구,강남논현학동점,서울 강남구 논현로131길 28 (논현동),37.5142272,127.0286662
3,강남구,강남대치점,"서울 강남구 역삼로 415 (대치동, 성진빌딩)",37.5042957,127.0630527
4,강남구,강남도산점,서울 강남구 도산대로37길 20 (신사동),37.5222413,127.0314815
5,강남구,강남세곡점,"서울 강남구 헌릉로569길 9 (세곡동, 강남지웰파인즈)",37.4669731,127.1005262
6,강남구,강남율현점,"서울 강남구 밤고개로21길 8 (율현동, 세곡프라자)",37.4696592,127.1130202
7,강남구,강남자곡점,"서울 강남구 자곡로 180 (자곡동, 강남유탑유블레스)",37.4734846,127.1030979
8,강남구,개포동역점,"서울 강남구 개포로82길 11 (개포동, 삼우빌딩)",37.4885214,127.0674325
9,강남구,건설회관점,서울 강남구 언주로 711 (논현동),37.5163003,127.0299123
10,강남구,대청역점,"서울 강남구 개포로109길 34 (개포동, 대청프라자)",37.4941735,127.0776294
11,강남구,대치역점,"서울 강남구 남부순환로 2937 (대치동, 까치빌딩)",37.4941007,127.061519
12,강남구,도곡2동점,"서울 강남구 논현로 142 (도곡동, 동현빌딩)",37.4824351,127.0429933
13,강남구,도산사거리점,서울 강남구 논현동 98-12,37.5202946,127.0359457
14,강남구,삼성대치점,"서울 강남구 삼성로64길 32 (대치동, 주성빌딩)",37.5004466,127.0627992
15,강남구,삼성동점,서울 강남구 테헤란로88길 10 (대치동),37.5068062,127.0594495
16,강남구,삼성중앙역점,"서울 강남구 삼성로 608 (삼성동, 우창빌딩)",37.50796,127.0565469
17,강남구,삼성한전점,서울 강남구 테헤란로107길 11 (삼성동),37.5103908,127.0650442
18,강남구,선릉사거리점,"서울 강남구 선릉로 519 (역삼동, 삼능빌딩)",37.505905,127.047937
19,강남구,선릉역점,"서울 강남구 테헤란로 332 (역삼동, HJ타워)",37.5038362,127.0481703
20,강남구,선정릉역점,서울 강남구 봉은사로 326 (역삼동),37.5096114,127.042657
21,강남구,수서역점,"서울 강남구 광평로 280 (수서동, 로즈데일오피스텔)",37.4872829,127.1031088
22,강남구,신사역점,서울 강남구 압구정로2길 62 (신사동),37.5177352,127.0214289
23,강남구,신사점,서울 강남구 도산대로 118 (논현동),37.5165111,127.0218046
24,강남구,압구정로데오역점,서울 강남구 선릉로161길 20 (신사동),37.5274922,127.0388195
25,강남구,압구정점,서울 강남구 신사동 576-10 106호,37.5247446,127.0268978
26,강남구,역삼더블루점,"서울 강남구 논현로63길 16 (역삼동, 역삼종합시장 더블루)",37.4938222,127.0385342
27,강남구,역삼상록점,"서울 강남구 테헤란로43길 18 (역삼동, SC빌딩)",37.5043993,127.0440514
28,강남구,역삼역점,서울 강남구 테헤란로25길 17 (역삼동),37.5017498,127.0352364
29,강남구,역삼월드점,"서울 강남구 역삼로52길 14 (역삼동, 도곡프라자)",37.4985129,127.0479773
30,강남구,역삼점,서울 강남구 논현로72길 13 (역삼동),37.49579,127.0405163
31,강남구,역삼중앙점,서울 강남구 언주로81길 8 (역삼동),37.4997267,127.041232
32,강남구,역삼초교점,서울 강남구 강남대로 314 (역삼동),37.4999072,127.0373932
33,강남구,역삼충현점,서울 강남구 논현로98길 7 (역삼동),37.5036583,127.0373687
34,강남구,역삼플래티넘점,"서울 강남구 테헤란로4길 46 (역삼동, 쌍용플래티넘밸류)",37.4953323,127.0303725
35,강남구,을지병원사거리점,서울 강남구 도산대로30길 7 (논현동),37.5193645,127.0294202
36,강남구,이디야커피랩,"서울 강남구 논현로 636 (논현동, 이디야빌딩)",37.5104381,127.032971
37,강남구,일원동점,서울 강남구 양재대로27길 20 (일원동),37.4899283,127.081772
38,강남구,청담사거리점,서울 강남구 도산대로 521 (청담동),37.5248364,127.0503603
39,강남구,청담역점,"서울 강남구 삼성로 721 (청담동, 룩희 819)",37.5200294,127.0491395
40,강남구,포이사거리점,서울 강남구 개포로 218 (개포동),37.4784579,127.0465991
41,강남구,학동역점,"서울 강남구 학동로 219 (논현동, 국제빌딩)",37.5107095,127.0443813
42,강남구,학동제마점,서울 강남구 학동로34길 22 (논현동),37.51308,127.0336405
43,강남구,한티역점,서울 강남구 도곡로69길 8 (대치동),37.4979096,127.0561038
0,강동구,강동고덕교차로점,"서울 강동구 고덕로 421 (강일동, 대한연세요양원)",37.5573713,127.1725399
1,강동구,강동구청점,"서울 강동구 성내로6길 20 (성내동, 청일 베르네)",37.5288753,127.1222899
2,강동구,강동성내점,서울 강동구 풍성로 162 (성내동),37.5304839,127.1298465
3,강동구,강동신명초교점,"서울 강동구 명일로 260 (길동, 길동신동아아파트)",37.540617,127.149247
4,강동구,강동역점,"서울 강동구 천호대로 1065 (천호동, 강동상떼빌)",37.5369841,127.1304589
5,강동구,강일점,"서울 강동구 아리수로93길 19 (강일동, 임페리얼타워)",37.5665592,127.1737804
6,강동구,고덕그라시움후문점,서울 강동구 동남로82길 121 (고덕동),37.5603577,127.1636874
7,강동구,고덕래미안힐스점,"서울 강동구 아리수로50길 50 (고덕동, 래미안힐스테이트고덕)",37.5602282,127.1493354
8,강동구,고덕점,"서울 강동구 동남로75길 19 (명일동, 명일빌딩)",37.5540951,127.1551471
9,강동구,굽은다리역점,서울 강동구 양재대로 1543 (천호동),37.5434703,127.1418503
10,강동구,길동사거리점,서울 강동구 천호대로 1132 (성내동),37.5302922,127.1287651
11,강동구,길동역점,서울 강동구 양재대로 1471 (길동),37.5372792,127.1393753
12,강동구,길동중앙점,서울 강동구 명일로 200 (길동),37.5365076,127.1459209
13,강동구,둔촌점,서울 강동구 양재대로 1377 (성내동),37.5302922,127.1287651
14,강동구,명일역점,"서울 강동구 구천면로 424 (명일동, 명일메가타운)",37.5503207,127.145546
15,강동구,명일중앙점,"서울 강동구 상암로 210 (명일동, 명일현대종합상가)",37.5484567,127.1487867
16,강동구,보훈병원점,"서울 강동구 명일로 110 (둔촌동, 둔촌동암펠로스타워)",37.5287091,127.1431767
17,강동구,상일리엔파크점,"서울 강동구 상일로 74 (상일동, 고덕리엔파크3단지아파트)",37.5523456,127.175784
18,강동구,암사3동점,"서울 강동구 고덕로 140 (암사동, 프라이어팰리스)",37.5534915,127.1390945
19,강동구,암사역점,"서울 강동구 올림픽로 782 (암사동, 501타워)",37.5508357,127.1281014
20,강동구,암사중앙점,"서울 강동구 암사길 50 (암사동, 제이빌더스)",37.5516267,127.1348226
21,강동구,올림픽북문점,서울 강동구 성안로 7 (성내동),37.5244902,127.1288855
22,강동구,천호로데오점,서울 강동구 천호대로 1027 (천호동),37.5381679,127.1262834
23,강동구,천호역점,서울 강동구 천호대로 1006 (성내동),37.5302922,127.1287651
24,강동구,천호중앙점,"서울 강동구 올림픽로 660 (천호동, 천호엘크루주상복합)",37.540115,127.1245713
25,강동구,천호초교사거리점,"서울 강동구 구천면로 304 (천호동, 일주빌딩)",37.5474982,127.1305473
26,강동구,천호현대점,서울 강동구 올림픽로 665 (천호동),37.5408846,127.1238516
0,강북구,4.19사거리점,서울 강북구 삼양로 501 (수유동),37.6478542,127.0142169
1,강북구,가오리역점,서울 강북구 삼각산로 108 (수유동),37.6405639,127.0161466
2,강북구,강북경찰서점,서울 강북구 오패산로 403 (번동),37.6368469,127.0269808
3,강북구,광산사거리점,"서울 강북구 노해로 91 (수유동, 진흥빌딩)",37.6439109,127.0219539
4,강북구,미아꿈의숲해링턴점,"서울 강북구 오현로 45 (미아동, 꿈의숲 해링턴 플레이스)",37.6185566,127.034085
5,강북구,미아삼거리역점,서울 강북구 도봉로10길 28 (미아동),37.6138407,127.0310049
6,강북구,미아삼거리점,"서울 강북구 도봉로 45 (미아동, 숭인시장)",37.6130238,127.0289642
7,강북구,미아송천점,서울 강북구 삼양로 118 (미아동),37.6143905,127.0224052
8,강북구,미아역점,서울 강북구 도봉로 207 -3(미아동),37.6319203,127.0280953
9,강북구,미아중앙점,서울 강북구 도봉로 128 (미아동),37.6204284,127.0287354
10,강북구,번동점,"서울 강북구 오현로 194 (번동, 덕수빌딩)",37.6288338,127.0398506
11,강북구,북한산점,서울 강북구 4.19로 85 (수유동),37.6316183,127.0229579
12,강북구,삼각산점,서울 강북구 솔샘로40길 3 (미아동),37.6198769,127.0160092
13,강북구,삼양사거리점,"서울 강북구 솔샘로 254 (미아동, 삼양아케이트)",37.6193347,127.0207972
14,강북구,삼양시장점,"서울 강북구 삼양로 234 (미아동, 대건빌딩)",37.6284519,127.0214065
15,강북구,수유1동점,서울 강북구 삼양로 293 (수유동),37.6295659,127.0176488
16,강북구,수유사거리점,"서울 강북구 덕릉로 82 (수유동, 제네스타워)",37.6394155,127.0080195
17,강북구,수유역점,서울 강북구 도봉로 355 (수유동),37.6393061,127.0266927
18,강북구,우이역도선사점,서울 강북구 삼양로173길 21 (우이동),37.6626046,127.0113765
19,강북구,한신대점,서울 강북구 덕릉로 31 (수유동),37.6342771,127.0169716
0,강서구,가양역점,서울 강서구 양천로 500 (등촌동),37.558653,126.8532512
1,강서구,강서nc점,서울 강서구 강서로54길 11 (등촌동),37.5592805,126.8393255
2,강서구,강서가양동점,"서울 강서구 강서로 511 (가양동, 한림타운)",37.5709705,126.8414444
3,강서구,강서교차로점,"서울 강서구 공항대로 437 (등촌동, 주신기업(주))",37.555002,126.8559032
4,강서구,강서구청점,"서울 강서구 화곡로 292 (화곡동, 서광프리메라)",37.5501456,126.8485937
5,강서구,강서한강자이점,서울 강서구 양천로 401 (가양동),37.563694,126.8336021
6,강서구,개화산역점,"서울 강서구 양천로 28 (방화동, 벽산에어트리움)",37.5724755,126.8070694
7,강서구,곰달래사거리점,서울 강서구 곰달래로 52 (화곡동),37.5299176,126.8385803
8,강서구,공항시장역점,"서울 강서구 방화동로 37 (방화동, 메디스타워)",37.5640044,126.8107915
9,강서구,까치산로점,서울 강서구 까치산로 182 (화곡동),37.5533329,126.853912
10,강서구,까치산역점,서울 강서구 강서로17길 6 (화곡동),37.5333847,126.8451896
11,강서구,내발산점,"서울 강서구 강서로 304 (내발산동, 영종빌딩)",37.5527284,126.8365671
12,강서구,등촌3동점,서울 강서구 공항대로41길 34 (등촌동),37.5592457,126.8457028
13,강서구,등촌동점,"서울 강서구 공항대로61길 20 (염창동, 우리프리머스)",37.5523447,126.8664448
14,강서구,등촌역점,서울 강서구 등촌로 217 (등촌동),37.549111,126.8632654
15,강서구,등촌중앙점,"서울 강서구 등촌로 67 (등촌동, 컴스웨이빌딩)",37.5360455,126.8631085
16,강서구,렘넌트문화센터점,"서울 강서구 화곡로63길 65 (등촌동, 예원교회)",37.5579326,126.8491762
17,강서구,마곡나루역점,"서울 강서구 마곡중앙5로 6 (마곡동, 마곡나루역보타닉푸르지오시티)",37.5673603,126.8275954
18,강서구,마곡대방디엠씨티점,"서울 강서구 양천로 344 (마곡동, 마곡센트럴대방디엠시티오피스텔)",37.5682963,126.8409671
19,강서구,마곡수명산점,"서울 강서구 수명로 68-27 (내발산동, 웨스트엔드문화센터)",37.5526355,126.826665
20,강서구,마곡엠밸리점,"서울 강서구 마곡서로 101 (마곡동, 동익드미라벨복합빌딩)",37.5619185,126.826919
21,강서구,마곡역점,"서울 강서구 공항대로 195 (마곡동, 힐스테이트에코동익)",37.5764888,126.8307466
22,강서구,마곡중앙점,"서울 강서구 마곡중앙6로 66 (마곡동, 퀸즈파크텐)",37.5739411,126.8375935
23,강서구,마곡퀸즈파크9점,"서울 강서구 공항대로 247 (마곡동, 퀸즈파크나인)",37.5594439,126.8342748
24,강서구,마곡파인스퀘어점,"서울 강서구 마곡중앙4로 22 (마곡동, 파인스퀘어)",37.5714215,126.8355464
25,강서구,마곡헤리움점,"서울 강서구 마곡중앙5로1길 25 (마곡동, 마곡헤리움2차)",37.569266,126.826403
26,강서구,발산역점,서울 강서구 공항대로 280 (내발산동),37.5482864,126.8194521
27,강서구,방화동로점,서울 강서구 방화동로 95 (방화동),37.5690525,126.8126438
28,강서구,방화사거리점,"서울 강서구 양천로 72 (방화동, 해성빌딩)",37.5729862,126.8076185
29,강서구,방화역점,"서울 강서구 금낭화로 146 (방화동, 오피앙)",37.5781558,126.8132929
30,강서구,서울공진초교점,"서울 강서구 마곡중앙1로 26 (마곡동, 마곡엠리체)",37.574814,126.8385818
31,강서구,송정역점,서울 강서구 공항대로 24 (공항동),37.5619449,126.8126966
32,강서구,신방화역점,"서울 강서구 마곡중앙5로 81 (마곡동, 에스비타운)",37.5759888,126.8315356
33,강서구,신방화중앙점,"서울 강서구 방화대로34길 92 (방화동, 불해빌딩)",37.5708766,126.8213439
34,강서구,양천향교역점,서울 강서구 강서로 462 (등촌동),37.5665739,126.8413981
35,강서구,염창동점,서울 강서구 양천로 689 (염창동),37.5505196,126.8728804
36,강서구,염창블루나인점,서울 강서구 양천로 583 (염창동),37.556904,126.8642901
37,강서구,우장산동점,서울 강서구 우현로 15 (화곡동),37.547128,126.8436128
38,강서구,우장산역점,서울 강서구 강서로45길 5 (화곡동),37.5478163,126.8358119
39,강서구,화곡남부시장점,서울 강서구 등촌로5길 80 (화곡동),37.5330576,126.8589924
40,강서구,화곡로점,서울 강서구 화곡로 133 (화곡동),37.5407931,126.8364778
41,강서구,화곡본동시장점,서울 강서구 까치산로4길 11 (화곡동),37.5421805,126.8442573
42,강서구,화곡사거리점,서울 강서구 곰달래로 135 (화곡동),37.5307235,126.8479086
43,강서구,화곡중앙시장점,서울 강서구 가로공원로76길 61 (화곡동),37.5343836,126.8382576
44,강서구,화곡중앙점,서울 강서구 까치산로 79 (화곡동),37.5457288,126.8474016
0,관악구,관악구청점,서울 관악구 관악로 164,37.4795649,126.9528901
1,관악구,관악우성점,서울 관악구 관악로 232 (봉천동),37.4849221,126.9559971
2,관악구,관악하나로마트점,"서울 관악구 남부순환로 1369 (신림동, 관악농협농산물백화점)",37.4800943,126.9028959
3,관악구,낙성대역점,서울 관악구 남부순환로 1915 (봉천동),37.477862,126.9621916
4,관악구,난곡사거리점,서울 관악구 남부순환로 1444 (신림동),37.4893951,126.9251765
5,관악구,난향동점,서울 관악구 난곡로 60 (신림동),37.4607674,126.9193864
6,관악구,남현홈플러스점,"서울 관악구 과천대로 909 (남현동, 남현프라자)",37.471482,126.9826404
7,관악구,녹두거리점,서울 관악구 신림로 91 (신림동),37.4702988,126.9390781
8,관악구,당곡사거리점,서울 관악구 봉천로 245 (봉천동),37.4892526,126.9290254
9,관악구,보라매중앙점,"서울 관악구 보라매로 62 (봉천동, 보라매삼성아파트)",37.4940971,126.9278545
10,관악구,봉일시장점,서울 관악구 은천로 23 (봉천동),37.4863629,126.9379113
11,관악구,봉천역점,서울 관악구 남부순환로 1725 (봉천동),37.4826457,126.9418783
12,관악구,봉천중앙점,서울 관악구 남부순환로 1874 (봉천동),37.4789698,126.9577375
13,관악구,사당중앙점,서울 관악구 과천대로 951 (남현동),37.475496,126.9812655
14,관악구,서울대중앙점,서울 관악구 남부순환로216길 2 (봉천동),37.4813377,126.9489838
15,관악구,신대방역점,서울 관악구 난곡로 368 (신림동),37.4868091,126.9137478
16,관악구,신림난곡점,서울 관악구 난곡로 197 (신림동),37.47253,126.9189265
17,관악구,신림남부초교점,서울 관악구 남부순환로 1541-1 (신림동),37.4833622,126.921872
18,관악구,신림대학동점,서울 관악구 호암로26길 17 (신림동),37.4707098,126.9345955
19,관악구,신림문화교점,서울 관악구 신림로 262-1 (신림동),37.478521,126.9326948
20,관악구,신림미성점,서울 관악구 난곡로 250 (신림동),37.4712962,126.917945
21,관악구,신림신원점,서울 관악구 신원로 16 (신림동),37.4807854,126.9281219
22,관악구,신림신화교점,서울 관악구 신림로 199 (신림동),37.4754898,126.9361817
23,관악구,신림역점,서울 관악구 신림로 312 (신림동),37.4821435,126.9301389
24,관악구,신림중앙점,서울 관악구 관천로 52 (신림동),37.4842993,126.9266142
25,관악구,신림패션문화점,서울 관악구 봉천로6길 24 (신림동),37.4885801,126.9254188
26,관악구,인헌점,서울 관악구 인헌길 17 (봉천동),37.4746876,126.9670201
27,관악구,청룡중앙점,"서울 관악구 쑥고개로 80 (봉천동, 제이빌딩)",37.4791717,126.9452559
0,광진구,건대로데오점,서울 광진구 아차산로30길 8 (자양동),37.5395762,127.0675281
1,광진구,건대스타시티2호점,"서울 광진구 능동로 92 (자양동, 스타시티몰) 지하 2층 201호",37.538557,127.0729616
2,광진구,건대스타시티점,"서울 광진구 아차산로 272 (자양동, 더샵스타시티)",37.5376127,127.0726183
3,광진구,건대역점,"서울 광진구 아차산로 229 (화양동, 한림타워)",37.5407319,127.069008
4,광진구,건대후문점,"서울 광진구 광나루로 416 (화양동, 건회빌딩)",37.5464057,127.0755739
5,광진구,광나루점,서울 광진구 아차산로 624 (광장동),37.5536729,127.104248
6,광진구,광진구청점,서울 광진구 자양로 136 (구의동),37.5397529,127.0833879
7,광진구,구의동점,서울 광진구 아차산로 481 (구의동),37.5466951,127.0914159
8,광진구,구의사거리점,서울 광진구 광나루로 508 (구의동),37.5447592,127.0859475
9,광진구,구의역점,서울 광진구 구의로 4 (구의동),37.5382416,127.0892961
10,광진구,구의자양로점,서울 광진구 자양로 251 (구의동),37.5489614,127.0892935
11,광진구,군자역점,"서울 광진구 능동로 290 (능동, 삼일빌딩)",37.5555903,127.0790595
12,광진구,동서울터미널점,서울 광진구 구의동 547 강변현대하이엘 109호,37.535098,127.094695
13,광진구,뚝섬유원지역점,서울 광진구 능동로 21 (자양동),37.5334659,127.0672262
14,광진구,세종대정문점,서울 광진구 능동로 261 (군자동),37.5517961,127.075273
15,광진구,세종대후문점,서울 광진구 군자로 109 (군자동),37.5528372,127.0719826
16,광진구,아차산역점,서울 광진구 천호대로 663 (구의동),37.55177,127.0902383
17,광진구,어린이대공원역점,서울 광진구 광나루로 380 (화양동),37.5475795,127.0718667
18,광진구,자양동점,서울 광진구 자양로 46 (자양동),37.5321373,127.0859522
19,광진구,자양우성점,"서울 광진구 자양번영로 34 (자양동, 제이원하이텔)",37.5326803,127.0758338
20,광진구,중곡대원점,서울 광진구 용마산로 111 (중곡동),37.5635558,127.0866291
21,광진구,중곡신성점,"서울 광진구 용마산로 37 (중곡동, 이안빌딩)",37.598033,127.0940962
22,광진구,중곡역점,서울 광진구 능동로 407 (중곡동),37.5626197,127.0853672
23,광진구,중곡중앙점,서울 광진구 능동로 330 (중곡동),37.5624717,127.0959862
0,구로구,개봉북부점,서울 구로구 경인로40길 12 (개봉동),37.495564,126.8590429
1,구로구,개봉역점,서울 구로구 남부순환로97길 11 (개봉동),37.4941792,126.8583787
2,구로구,개봉중앙점,서울 구로구 개봉로3길 26 (개봉동),37.48641,126.8548809
3,구로구,개봉현대점,서울 구로구 개봉로 69 (개봉동),37.4918637,126.8555982
4,구로구,고대구로병원점,서울 구로구 구로동로 157 (구로동),37.492533,126.8833543
5,구로구,고척사거리점,"서울 구로구 고척로 228-6 (고척동, 종만빌딩)",37.5057472,126.8582376
6,구로구,고척스카이돔점,"서울 구로구 경인로 397 (고척동, 골든타워빌딩)",37.4977766,126.8637523
7,구로구,구로NC점,서울 구로구 구로동로 240 (구로동),37.4999675,126.8826973
8,구로구,구로거리공원점,서울 구로구 구로중앙로28길 73 (구로동),37.5007554,126.8893254
9,구로구,구로고척점,"서울 구로구 고척로 149 (고척동, 상암빌딩)",37.5030865,126.850169
10,구로구,구로궁동점,서울 구로구 오리로 1304 (궁동) 1층,37.5003075,126.8289067
11,구로구,구로미성점,"서울 구로구 구로중앙로 228 (신도림동, 기임빌딩)",37.5060959,126.87662
12,구로구,구로에이스점,서울 구로구 디지털로33길 11 (구로동),37.4856641,126.8955021
13,구로구,구로역광장점,"서울 구로구 경인로 572 (구로동, 스타팰리스)",37.5034025,126.880915
14,구로구,구로이마트점,서울 구로구 디지털로32길 43 (구로동),37.4843537,126.89788
15,구로구,구로중앙점,서울 구로구 도림로 79 (구로동),37.4900511,126.8920236
16,구로구,구로코레일점,"서울 구로구 구로중앙로 174 (구로동, 구로역)",37.5023699,126.8814842
17,구로구,구로항동지구점,"서울 구로구 항동로3길 6 (항동, 가온 프라자)",37.486525,126.8252088
18,구로구,구일역점,"서울 구로구 구일로 110 (구로동, 해원리버파크)",37.4950273,126.872004
19,구로구,남구로역점,서울 구로구 디지털로27길 127 (가리봉동),37.4846716,126.8870975
20,구로구,동양미래대학점,서울 구로구 경인로47길 14 (고척동),37.500202,126.8670179
21,구로구,메르디앙고척점,"서울 구로구 중앙로8길 11 (고척동, 고척 월드메르디앙)",37.5028461,126.8632325
22,구로구,성공회대점,서울 구로구 연동로 312 (항동),37.4872294,126.8242853
23,구로구,신도림메르디앙점,"서울 구로구 신도림로 65 (신도림동, 신도림월드메르디앙오피스텔)",37.5095401,126.8820361
24,구로구,신도림테크노마트점,서울 구로구 새말로 97 (구로동),37.5070431,126.8902185
25,구로구,오류남부점,서울 구로구 오류로8길 65 (오류동),37.4926091,126.8437777
26,구로구,오류북부역점,서울 구로구 경인로20길 6 (오류동),37.4966004,126.838513
27,구로구,천왕이펜하우스점,서울 구로구 천왕로 36 (천왕동),37.4816349,126.8418958
0,금천구,가산SKV1점,서울 금천구 가산디지털1로 171 (가산동),37.4806318,126.8805702
1,금천구,가산그레이트점,서울 금천구 디지털로9길 32 (가산동),37.4794491,126.8874768
2,금천구,가산대륭19차점,서울 금천구 가산디지털2로 70 (가산동),37.4746528,126.8822218
3,금천구,가산두산위브점,서울 금천구 가산로 111 (가산동),37.4755779,126.8929078
4,금천구,가산리더스타워점,서울 금천구 벚꽃로 286 (가산동),37.4803075,126.8841943
5,금천구,가산벽산점,서울 금천구 벚꽃로 244 (가산동),37.4767039,126.8857798
6,금천구,가산에이스점,서울 금천구 가산디지털1로 196 (가산동),37.4829154,126.8812688
7,금천구,가산오거리점,"서울 금천구 가산로 155 (가산동, 케이디에스빌딩)",37.4788157,126.8900708
8,금천구,가산월드점,서울 금천구 가산디지털2로 123 (가산동),37.4787503,126.8786525
9,금천구,가산하이엔드10차점,"서울 금천구 가산디지털1로 30 (가산동, 에이스하이엔드타워10)",37.468635,126.8872075
10,금천구,금천롯데마트점,"서울 금천구 시흥대로 291 (독산동, 금천롯데캐슬골드파크3차)",37.459141,126.8974447
11,금천구,독산동쌈지공원점,서울 금천구 독산로 276 (독산동),37.4713136,126.9032798
12,금천구,독산동점,"서울 금천구 독산로 218 (독산동, 창영빌딩)",37.4663108,126.9019986
13,금천구,독산롯데시네마점,서울 금천구 시흥대로 399 (독산동),37.4693273,126.8970414
14,금천구,박미삼거리점,서울 금천구 시흥대로 150 (시흥동),37.4475844,126.9036523
15,금천구,석수푸르지오점,"서울 금천구 삼성산길 11 (시흥동, 위너스타워)",37.4340449,126.9048803
16,금천구,세광교회점,서울 금천구 독산로 124 (시흥동),37.4582394,126.9056093
17,금천구,시흥동점,서울 금천구 시흥동 890-10,37.4515665,126.9021441
18,금천구,시흥사거리점,서울 금천구 시흥대로63길 8 (시흥동),37.4549924,126.8991565
19,금천구,시흥유통센터점,"서울 금천구 시흥대로 88 (시흥동, 오복빌딩)",37.4418469,126.9038942
20,금천구,시흥중앙점,서울 금천구 금하로 748 (시흥동),37.4498371,126.9125411
21,금천구,에이스가산포휴점,"서울 금천구 가산디지털1로 225 (가산동, 에이스 가산 포휴(지식산업센터))",37.4851258,126.8787246
22,금천구,은행나무사거리점,서울 금천구 금하로 690 (시흥동),37.4517558,126.9066215
0,노원구,공릉역점,서울 노원구 동일로192길 5 (공릉동),37.626035,127.0733753
1,노원구,공릉중앙점,서울 노원구 공릉로 146 (공릉동),37.623043,127.0795195
2,노원구,광운대점,서울 노원구 광운로 29 (월계동),37.6202851,127.0584102
3,노원구,노원KT점,서울 노원구 노해로 494 (상계동),37.6545399,127.0629813
4,노원구,노원사거리점,서울 노원구 동일로 1393 (상계동),37.6529076,127.0605347
5,노원구,노원역2호점,서울 노원구 상계로 64 (상계동),37.6555926,127.0623312
6,노원구,노원중앙점,서울 노원구 노원로 452 (상계동),37.6568057,127.0669206
7,노원구,당고개역점,서울 노원구 상계로 313 (상계동),37.6707862,127.0803617
8,노원구,마들역점,서울 노원구 동일로 1541 (상계동),37.6658135,127.0569853
9,노원구,상계동점,서울 노원구 한글비석로52길 8 (상계동),37.6648446,127.0664584
10,노원구,상계역사거리점,서울 노원구 한글비석로 409 (상계동) 1~2층,37.6611031,127.0708473
11,노원구,상계역점,서울 노원구 덕릉로 698 (중계동),37.6598008,127.0756283
12,노원구,상계중앙점,서울 노원구 동일로 1650 (상계동),37.6754112,127.0555125
13,노원구,서울과학기술대점,서울 노원구 공릉로 208 (공릉동),37.628258,127.0777683
14,노원구,서울여대점,서울 노원구 노원로 3 (공릉동),37.6218823,127.0865752
15,노원구,석계역점,서울 노원구 석계로3길 3 (월계동),37.6155161,127.0643253
16,노원구,세이브존노원점,"서울 노원구 한글비석로 57 (하계동, 세이브존)",37.6378958,127.0686347
17,노원구,수락산역점,"서울 노원구 동일로 1689 (상계동, 하이베라스)",37.6791891,127.0549866
18,노원구,원자력병원점,서울 노원구 공릉로46길 6 (공릉동),37.6269138,127.0796292
19,노원구,월계이마트점,"서울 노원구 마들로3길 15 (월계동, 월계이마트)",37.62644,127.0619091
20,노원구,월계인덕점,서울 노원구 광운로22길 39 (월계동),37.6285729,127.0592566
21,노원구,월계초교점,서울 노원구 월계동 845-5,37.6269412,127.0503463
22,노원구,은행사거리점,서울 노원구 중계로 201 (중계동),37.6504368,127.0777536
23,노원구,중계롯데우성점,서울 노원구 노원로22길 70 (중계동),37.6475922,127.0726622
24,노원구,중계본동점,서울 노원구 중계로14바길 2 (중계동),37.6498409,127.0825681
25,노원구,중계브라운스톤점,"서울 노원구 동일로203가길 29 (중계동, 브라운스톤중계)",37.6400147,127.0642892
26,노원구,중계점,서울 노원구 동일로204가길 34 (중계동),37.6406859,127.0681273
27,노원구,중계중앙점,서울 노원구 덕릉로73길 18 (중계동),37.6521367,127.0723076
28,노원구,태릉입구역점,"서울 노원구 공릉로 105 (공릉동, 성종빌딩)",37.6195756,127.077871
29,노원구,하계온천점,서울 노원구 노원로 257 (하계동),37.637576,127.0725939
30,노원구,하계을지점,서울 노원구 공릉로 326 (하계동),37.6358505,127.0711596
0,도봉구,덕성여대점,서울 도봉구 삼양로 542 (쌍문동),37.6515523,127.0129588
1,도봉구,도봉구청점,"서울 도봉구 도봉로150길 43 (방학동, ESA 아파트)",37.6663859,127.0455878
2,도봉구,도봉보건소사거리점,서울 도봉구 해등로 157 (쌍문동),37.6567466,127.0388047
3,도봉구,도봉산점,서울 도봉구 도봉산길 18 (도봉동),37.6879391,127.0336271
4,도봉구,도봉역점,서울 도봉구 도봉로 823 (도봉동),37.6778789,127.0447434
5,도봉구,도봉중앙점,서울 도봉구 도봉로181길 18 (도봉동),37.6842049,127.0448504
6,도봉구,방학사거리점,서울 도봉구 도봉로 677 (방학동),37.6625819,127.0410405
7,도봉구,방학역점,서울 도봉구 도봉로153길 15 (방학동),37.669757,127.0425203
8,도봉구,방학점,서울 도봉구 방학로 171 (방학동),37.6621271,127.0332303
9,도봉구,방학중앙점,서울 도봉구 도당로13길 22 (방학동),37.6657273,127.0352862
10,도봉구,선덕고사거리점,"서울 도봉구 해등로 255 (쌍문동, 에벤에셀아파트)",37.6573275,127.0282084
11,도봉구,솔밭공원역점,"서울 도봉구 삼양로 594 (쌍문동, 주함해븐빌)",37.6562302,127.0135377
12,도봉구,신창점,서울 도봉구 덕릉로 235 (창동),37.6388915,127.0380921
13,도봉구,쌍문동점,서울 도봉구 노해로 162 (쌍문동),37.6487826,127.0272818
14,도봉구,쌍문역점,서울 도봉구 도봉로117길 4 (쌍문동),37.6494246,127.0322549
15,도봉구,쌍문중앙점,서울 도봉구 도봉로 519 (쌍문동),37.6568545,127.0152936
16,도봉구,창동대우점,서울 도봉구 덕릉로63가길 30 (창동),37.6434459,127.0387291
17,도봉구,창동블루핀점,서울 도봉구 마들로 550 (창동),37.6605123,127.049623
18,도봉구,창동역점,서울 도봉구 마들로11길 65 (창동),37.6533575,127.0496609
19,도봉구,창동제일점,서울 도봉구 노해로70길 81 (창동),37.6487061,127.0525283
20,도봉구,창동중앙점,서울 도봉구 노해로63길 78 (창동),37.6525232,127.0463148
21,도봉구,창동하나로마트점,"서울 도봉구 마들로11길 20 (창동, 농협창동유통센타)",37.6548907,127.051721
22,도봉구,창동학원가점,서울 도봉구 해등로16길 61 (창동),37.6550904,127.0433286
23,도봉구,창동현대타운점,서울 도봉구 도봉로114길 22 (창동),37.6473276,127.0356466
0,동대문구,경희대점,서울 동대문구 경희대로 4 (회기동),37.591867,127.0525122
1,동대문구,경희대캠퍼스점,"서울 동대문구 경희대로 26 (회기동, 경희대학교,경희초,중,고,여자중고등학교)",37.5948937,127.0491562
2,동대문구,답십리사거리점,서울 동대문구 답십리로 145 (답십리동),37.5730325,127.0561006
3,동대문구,답십리역점,서울 동대문구 천호대로 265 (답십리동),37.5690261,127.0573024
4,동대문구,답십리파크자이점,"서울 동대문구 한천로 55 (답십리동, 영진빌딩)",37.5714784,127.0577096
5,동대문구,동대문구청점,서울 동대문구 천호대로 153-1 (용두동),37.5795817,127.0299297
6,동대문구,동부병원사거리점,서울 동대문구 무학로 104 (용두동),37.5735046,127.0309651
7,동대문구,배봉초교사거리점,서울 동대문구 답십리로63길 131 (장안동),37.5784698,127.069321
8,동대문구,서울시립대점,"서울 동대문구 서울시립대로 164 (전농동, 도석프라자)",37.583249,127.0548191
9,동대문구,신설동역점,서울 동대문구 천호대로 11-3 (신설동),37.5780881,127.027344
10,동대문구,외대점,서울 동대문구 휘경로 12 (이문동),37.5958204,127.0612654
11,동대문구,용두동사거리점,서울 동대문구 왕산로 68 (용두동),37.5757009,127.034989
12,동대문구,용두동점,서울 동대문구 고산자로 413-1 (용두동),37.5766232,127.0379189
13,동대문구,이문점,서울 동대문구 신이문로 19 (이문동),37.6031045,127.064235
14,동대문구,장안동사거리점,서울 동대문구 답십리로 309 (장안동),37.572295,127.0748317
15,동대문구,장안동점,서울 동대문구 장한로 43 (장안동),37.5650632,127.0666931
16,동대문구,장안중랑천점,서울 동대문구 장한로18길 32 (장안동),37.5674947,127.0707583
17,동대문구,장안중앙점,서울 동대문구 사가정로25길 42 (장안동),37.5806425,127.0709617
18,동대문구,장한평군자초교점,서울 동대문구 한천로2길 53 (장안동),37.5627974,127.0613958
19,동대문구,전농뉴타운점,서울 동대문구 답십리로 77 (전농동),37.5750329,127.0496055
20,동대문구,전농사거리점,서울 동대문구 사가정로 132 (전농동),37.5775568,127.0595101
21,동대문구,청량리점,서울 동대문구 왕산로 225 (청량리동),37.5832353,127.0447165
22,동대문구,촬영소사거리점,서울 동대문구 답십리로 264 (장안동),37.5722268,127.0694723
23,동대문구,회기역점,"서울 동대문구 망우로 67 (휘경동, 효자 워너빌)",37.5899254,127.0606026
24,동대문구,회기역중앙점,서울 동대문구 회기로 194-1 (휘경동),37.5897957,127.0574889
0,동작구,남성역점,서울 동작구 사당로17가길 13 (사당동),37.4837726,126.9734022
1,동작구,노들점,서울 동작구 노량진로 200 (노량진동),37.5128665,126.947914
2,동작구,노량진CTS점,서울 동작구 노량진로 110 (노량진동),37.5131457,126.9380262
3,동작구,노량진드림스퀘어점,"서울 동작구 노들로2길 7 (노량진동, 노량진 드림스퀘어 복합빌딩)",37.5142855,126.9385304
4,동작구,노량진역사점,"서울 동작구 노량진로 지하 130 (노량진동, 9호선 노량진역)",37.5124675,126.9467172
5,동작구,대림성모점,서울 동작구 시흥대로 658 (신대방동),37.4903375,126.9080654
6,동작구,대방역점,"서울 동작구 노량진로 24 (대방동, 한신빌딩)",37.5128738,126.9281981
7,동작구,보라매공원점,서울 동작구 여의대방로 90 (신대방동),37.496767,126.9166468
8,동작구,보라매점,"서울 동작구 보라매로5가길 16 (신대방동, 보라매아카데미타워)",37.4912431,126.9240825
9,동작구,사당역점,서울 동작구 동작대로7길 100 (사당동),37.4771207,126.9775204
10,동작구,사당점,서울 동작구 동작대로 45 (사당동),37.4807275,126.9814704
11,동작구,상도역점,서울 동작구 상도로 277 (상도1동),37.499214,126.9514712
12,동작구,상도중앙점,서울 동작구 만양로 17 (상도동),37.5061645,126.9471926
13,동작구,숭실대점,서울 동작구 사당로 2 (상도동),37.4954274,126.9546782
14,동작구,신대방삼거리점,서울 동작구 상도로 78 (대방동),37.5145329,126.9322942
15,동작구,신상도초교점,서울 동작구 양녕로 183 (상도동),37.497676,126.9431874
16,동작구,이수중앙점,서울 동작구 사당로 285 (사당동),37.4846165,126.9791799
17,동작구,중앙대점,서울 동작구 흑석로 79 (흑석동),37.5069892,126.9584078
18,동작구,중앙대후문점,서울 동작구 흑석로 20 (상도동),37.5047935,126.9530208
19,동작구,총신대입구역점,서울 동작구 동작대로 119-1 (사당동),37.487267,126.9818565
20,동작구,총신대점,"서울 동작구 사당로16가길 96 (사당동) 1,2층",37.4850653,126.9688107
21,동작구,해군회관점,서울 동작구 여의대방로 194 (대방동),37.5080962,126.9262539
0,마포구,공덕롯데캐슬점,"서울 마포구 마포대로 109 (공덕동, 롯데캐슬프레지던트)",37.548582,126.9588037
1,마포구,공덕점,서울 마포구 마포대로8길 15 (공덕동),37.5461947,126.954512
2,마포구,광흥창역점,"서울 마포구 창전로 45 (창전동, 서강한화오벨리스크)",37.5465423,126.9317948
3,마포구,대흥역점,서울 마포구 백범로 100 (대흥동),37.5488447,126.9414298
4,마포구,동교중앙점,서울 마포구 동교로27길 8 (동교동),37.5587392,126.9230221
5,마포구,마포공덕역점,서울 마포구 새창로 6 (도화동),37.5407431,126.9537335
6,마포구,마포구청점,서울 마포구 월드컵로 196 (성산동),37.5643652,126.9062602
7,마포구,마포데시앙점,서울 마포구 독막로 320 (도화동),37.5397449,126.9484575
8,마포구,마포성산시영점,서울 마포구 월드컵북로 210 (성산동),37.5613712,126.9167228
9,마포구,마포점,서울 마포구 도화길 10 (도화동),37.5397641,126.9473823
10,마포구,망리단길점,"서울 마포구 포은로 81-1 (망원동, S-빌딩)",37.5543031,126.9052551
11,마포구,망원역점,서울 마포구 월드컵로 82-1 (서교동),37.5579103,126.9106565
12,마포구,망원중앙점,서울 마포구 월드컵로 147 (망원동),37.56076,126.905464
13,마포구,상수역점,서울 마포구 와우산로 41-1 (상수동),37.5462303,126.9280897
14,마포구,상암DMC점,서울 마포구 월드컵북로 396 (상암동),37.5791192,126.8902941
15,마포구,상암KBS점,서울 마포구 월드컵북로 375 (상암동),37.5773051,126.8906358
16,마포구,상암우리기술점,서울 마포구 월드컵북로56길 9 (상암동),37.5813475,126.887425
17,마포구,상암한샘점,서울 마포구 성암로13길 58 (상암동),37.5756558,126.8977097
18,마포구,상암홈플러스점,서울 마포구 월드컵로 240 (성산동),37.55922,126.9139289
19,마포구,서강대점,서울 마포구 백범로 34 (신수동),37.5487604,126.9393635
20,마포구,서교동점,서울 마포구 와우산로29길 70 (서교동),37.5563162,126.9265746
21,마포구,성산점,서울 마포구 월드컵북로 137 (성산동),37.5675176,126.9100186
22,마포구,성산중앙점,서울 마포구 성미산로 78 (성산동),37.5615164,126.9194136
23,마포구,신촌그랑자이점,"서울 마포구 대흥로 183 (대흥동, 신촌그랑자이 상가)",37.5558648,126.9453854
24,마포구,신촌로터리점,서울 마포구 서강로 135 (노고산동),37.5538162,126.9367619
25,마포구,신촌숲아이파크점,"서울 마포구 광성로 17 (신수동, 신촌숲아이파크)",37.5499797,126.934979
26,마포구,애오개역점,서울 마포구 마포대로 208 (아현동),37.5524425,126.9568124
27,마포구,오벨리스크점,"서울 마포구 마포대로 33 (도화동, 마포 한화 오벨리스크)",37.5397604,126.9451405
28,마포구,한강공원로점,서울 마포구 망원로 21 (망원동),37.5563164,126.8993901
29,마포구,합정LIG점,서울 마포구 양화로1길 21 (합정동),37.5494407,126.9103713
30,마포구,합정동점,서울 마포구 양화로6길 90 (합정동),37.5481933,126.919058
31,마포구,합정역사거리점,서울 마포구 독막로2길 5 (합정동),37.548217,126.914866
32,마포구,합정역점,서울 마포구 양화로11길 54 (서교동),37.5520737,126.91491
33,마포구,합정홈플러스점,"서울 마포구 양화로 45 (서교동, 메세나폴리스)",37.5499443,126.9137027
34,마포구,홍대중앙점,서울 마포구 양화로 124 (서교동),37.5542126,126.9207762
35,마포구,홍대청기와점,서울 마포구 월드컵북로 7 (서교동),37.5555692,126.9206333
36,마포구,홍대학원가점,서울 마포구 와우산로 148 (창전동),37.5541014,126.929644
0,서대문구,가재울점,서울 서대문구 수색로 100,37.5728384,126.9123903
1,서대문구,가재울중앙점,"서울 서대문구 가재울미래로 2 (남가좌동, DMC파크뷰자이)",37.5847052,126.9229346
2,서대문구,독립문통일로점,서울 서대문구 영천동 278,37.5712565,126.9608404
3,서대문구,동교동점,서울 서대문구 신촌로 5 (창천동),37.558379,126.9396708
4,서대문구,명지대점,서울 서대문구 거북골로 35 (남가좌동),37.5793331,126.9239019
5,서대문구,명지전문대점,서울 서대문구 가좌로 140 (홍은동),37.5845413,126.9241326
6,서대문구,무악재역점,서울 서대문구 홍제동 90-47,37.5830666,126.9496747
7,서대문구,북가좌동점,서울 서대문구 증가로 257 (북가좌동),37.5760008,126.9030186
8,서대문구,서대문구청점,서울 서대문구 연희로 237 (연희동),37.578217,126.9356558
9,서대문구,서대문점,서울 서대문구 냉천동 248번지 1층,37.5668727,126.9652175
10,서대문구,신촌기차역점,서울 서대문구 신촌역로 35 (창천동),37.5589365,126.9414455
11,서대문구,신촌역점,서울 서대문구 신촌로 87-20 (창천동),37.5603666,126.9340513
12,서대문구,아현역점,"서울 서대문구 신촌로35길 10 (북아현동, e편한세상신촌 4단지)",37.5584231,126.9546193
13,서대문구,연남동점,서울 서대문구 연희로 42 (연희동),37.5623305,126.9278489
14,서대문구,연대서문점,서울 서대문구 연희로10길 86 (연희동),37.5636727,126.933677
15,서대문구,연세대점,서울 서대문구 연세로12길 10 (창천동),37.5588209,126.9375073
16,서대문구,연희삼거리점,서울 서대문구 연희로 117 (연희동),37.5682728,126.9318184
17,서대문구,이화여대점,"서울 서대문구 이화여대길 26 (대현동, 이화빌딩)",37.5582145,126.9451398
18,서대문구,충정로3가점,"서울 서대문구 경기대로 26-26 (충정로3가, 더스타일하우스디센트럴)",37.5622371,126.9615554
19,서대문구,홍은사거리점,"서울 서대문구 통일로 510 (홍은동, 북한산 더샵)",37.5927053,126.9416772
20,서대문구,홍제역점,서울 서대문구 홍제동 169-16,37.5874,126.9453622
0,서초구,강남센트럴시티점,"서울 서초구 신반포로 176 (반포동, 센트럴시티)",37.5041299,127.0030692
1,서초구,교대역점,"서울 서초구 서초대로56길 22 (서초동, 성운빌딩)",37.4977102,126.9978029
2,서초구,교육개발원사거리점,"서울 서초구 바우뫼로 180 (양재동, 신송빌딩)",37.4782389,127.0398035
3,서초구,국립중앙도서관디지털관점,"서울 서초구 반포대로 201 (반포동, 국립중앙도서관)",37.497689,127.0028333
4,서초구,국립중앙도서관본관점,"서울 서초구 반포대로 201 (반포동, 국립중앙도서관)",37.497689,127.0028333
5,서초구,남부터미널점,서울 서초구 서초동 1444-2,37.4846913,127.0188535
6,서초구,내방역점,"서울 서초구 서초대로 108 (방배동, 삼보빌딩)",37.4875268,126.9941918
7,서초구,반포지하상가점,"서울 서초구 신반포로 지하 200 (잠원동, 강남터미널지하쇼핑몰)",37.5041437,126.9970518
8,서초구,방배백석점,서울 서초구 방배로 42 (방배동),37.478696,126.9997564
9,서초구,방배역점,서울 서초구 방배로 87 (방배동),37.482139,126.9968963
10,서초구,방배중앙점,"서울 서초구 동광로 1 (방배동, 대양빌딩)",37.4910362,126.9830198
11,서초구,서울고교점,서울 서초구 서초동 1489-1,37.4824823,127.0047884
12,서초구,서울고속버스터미널점,"서울 서초구 신반포로 194 (반포동, 강남고속버스터미널)",37.506123,127.003846
13,서초구,서울교대점,서울 서초구 서초동 1577-11,37.4897262,127.0140688
14,서초구,서초법조타운점,"서울 서초구 서초중앙로24길 7 (서초동, 동천빌딩)",37.4947529,127.0144754
15,서초구,서초역점,서울 서초구 서초동 1510-2,37.4876739,127.0085053
16,서초구,서초우면중앙점,"서울 서초구 양재대로2길 100-11 (우면동, 서초 리슈빌S)",37.4644963,127.0417509
17,서초구,서초점,서울 서초구 서초대로48길 16 (서초동),37.4920152,127.0113078
18,서초구,신논현역점,서울 서초구 강남대로79길 10 (반포동),37.5052523,127.0231968
19,서초구,양재언남점,"서울 서초구 동산로 60 (양재동, 화성빌딩)",37.4685477,127.0278008
20,서초구,양재점,서울 서초구 남부순환로347길 38 (서초동),37.4859875,127.0314737
21,서초구,양재중앙점,"서울 서초구 강남대로 221 (양재동, 양재역 환승주차장)",37.4785467,127.0413269
22,서초구,양재하나로마트점,"서울 서초구 청계산로 10 (양재동, 농협하나로클럽)",37.4629931,127.043105
23,서초구,예술의전당점,"서울 서초구 반포대로 32 (서초동, 원일빌딩)",37.4833789,127.0121074
24,서초구,우면동점,"서울 서초구 바우뫼로 20 (우면동, 고호빌딩)",37.4699641,127.025301
25,서초구,잠원논현점,서울 서초구 신반포로 333 (잠원동),37.5108882,127.0201282
26,서초구,청계산입구역점,서울 서초구 신원동 271-23,37.4484207,127.055849
27,서초구,포이점,서울 서초구 마방로10길 42 (양재동),37.475593,127.0445372
28,서초구,함지박사거리점,서울 서초구 방배로 234 우신빌딩,37.4780738,127.0007198
0,성동구,논골사거리점,서울 성동구 난계로 35 (금호동1가),37.5554834,127.0244633
1,성동구,답십리로데오점,서울 성동구 용답19길 17-1 (용답동),37.5637339,127.052529
2,성동구,뚝섬역점,서울 성동구 상원길 38-1 (성수동1가),37.5473256,127.048794
3,성동구,마장동점,서울 성동구 고산자로 339-2 (마장동),37.5699814,127.0373421
4,성동구,마장역점,서울 성동구 마장로 293-1 (마장동),37.5659109,127.0421543
5,성동구,상왕십리역점,서울 성동구 무학봉15길 27 (하왕십리동),37.5636352,127.0301592
6,성동구,서울숲역점,서울 성동구 왕십리로 96-1 (성수동1가),37.5391701,127.0474244
7,성동구,성동구청점,서울 성동구 고산자로 269 (도선동),37.5632818,127.0328803
8,성동구,성수2가점,서울 성동구 성덕정길 106 (성수동2가),37.5371206,127.0550961
9,성동구,성수아카데미점,서울 성동구 성수이로 118 (성수동2가),37.5451437,127.0578284
10,성동구,성수우리W타워점,서울 성동구 아차산로15길 19 (성수동2가),37.5447256,127.0621362
11,성동구,성수중앙점,"서울 성동구 성수일로6길 47 (성수동2가, 현성빌딩)",37.5442438,127.0552721
12,성동구,신금호역점,서울 성동구 금호산길 64 (금호동2가),37.5538555,127.0196077
13,성동구,옥수동점,서울 성동구 매봉길 12 (옥수동),37.5452467,127.0156749
14,성동구,옥수역점,서울 성동구 한림말5길 9 (옥수동),37.5419719,127.0167024
15,성동구,왕십리비트플렉스점,서울 성동구 왕십리광장로 17 (행당동),37.5621482,127.0379421
16,성동구,왕십리센트라스점,서울 성동구 무학로 22 (홍익동),37.5660457,127.0302943
17,성동구,왕십리역점,서울 성동구 왕십리로 309 (행당동),37.5594078,127.0330515
18,성동구,응봉동점,"서울 성동구 독서당로 381 (응봉동, 현대종합상가)",37.5509821,127.0309093
19,성동구,장한평역점,서울 성동구 천호대로 426 (용답동),37.560746,127.0662025
20,성동구,텐즈힐점,"서울 성동구 무학로 33 (하왕십리동, 텐즈힐)",37.5664459,127.030702
21,성동구,한양대점,서울 성동구 사근동길 4 (행당동),37.5598989,127.0415624
22,성동구,행당동점,서울 성동구 고산자로 201 (행당동),37.5580159,127.0337407
0,성북구,고대개운점,서울 성북구 개운사길 30 (안암동5가),37.5876534,127.0294038
1,성북구,고대점,서울 성북구 고려대로24길 35 (안암동5가),37.5861037,127.0322704
2,성북구,국민대점,서울 성북구 정릉로9라길 8 (정릉동),37.6111263,127.0003764
3,성북구,길음뉴타운점,"서울 성북구 길음로 74 (길음동, 길음 에스에이치빌)",37.6097759,127.0206116
4,성북구,돈암동점,서울 성북구 동소문로 119 (동선동4가),37.5943435,127.0185038
5,성북구,돈암아리랑점,"서울 성북구 아리랑로 75 (돈암동, 돈암코오롱하늘채)",37.5991068,127.0137948
6,성북구,돌곶이역점,서울 성북구 돌곶이로22길 3 (석관동),37.6101594,127.058086
7,성북구,동덕여대점,서울 성북구 화랑로 99 (하월곡동),37.6038358,127.0353171
8,성북구,동소문동점,서울 성북구 동소문로13길 5 (동소문동4가),37.5920114,127.0128569
9,성북구,보문역점,서울 성북구 보문로 111 (보문동2가),37.5848579,127.0191073
10,성북구,석계중앙점,서울 성북구 화랑로40길 61 (석관동),37.6073036,127.062906
11,성북구,석관동점,"서울 성북구 돌곶이로8길 22 (석관동, 래미안아트리치)",37.606103,127.0634229
12,성북구,성신여대역점,서울 성북구 동소문로17길 40 (동소문동6가),37.5935484,127.0152431
13,성북구,성신여대점,서울 성북구 보문로34길 100 (동선동2가),37.5911844,127.020776
14,성북구,안암래미안점,서울 성북구 보문로30가길 42 (안암동1가),37.5889656,127.02202
15,성북구,월곡1동점,서울 성북구 오패산로 99 (하월곡동),37.6107208,127.0351251
16,성북구,월곡동아점,서울 성북구 장월로1길 47 (상월곡동),37.606215,127.0456787
17,성북구,월곡중앙점,서울 성북구 종암로 167,37.602119,127.0332133
18,성북구,장위2동점,서울 성북구 화랑로25길 14 (장위동),37.6094377,127.0519431
19,성북구,장위뉴타운점,서울 성북구 장월로 144-1 (장위동),37.6176579,127.0510126
20,성북구,장위동점,서울 성북구 월계로40길 7 (장위동),37.6228267,127.048397
21,성북구,장위북서울꿈의숲점,서울 성북구 돌곶이로41가길 2 (장위동),37.6185575,127.0455923
22,성북구,장위중앙점,서울 성북구 장위로 35 (장위동),37.6144277,127.0407678
23,성북구,정릉뉴타운점,"서울 성북구 정릉로 307 (정릉동, 라온유 아파트)",37.6032405,127.0182023
24,성북구,정릉아리랑점,"서울 성북구 북악산로 851 (정릉동, 정릉2차 e-편한세상)",37.599785,127.0193858
25,성북구,정릉점,서울 성북구 보국문로 77 (정릉동),37.6111065,127.0086007
26,성북구,정릉중앙점,서울 성북구 정릉로 251 (정릉동),37.6136201,127.0071843
27,성북구,종암동점,서울 성북구 종암로 105 (종암동),37.5994896,127.0339384
28,성북구,하월곡동점,서울 성북구 오패산로 16 (하월곡동),37.6035972,127.0375512
29,성북구,한성대역점,서울 성북구 동소문로 19 (동소문동1가),37.5889646,127.0063694
30,성북구,한성대점,서울 성북구 삼선교로 10 (삼선동1가),37.5877048,127.0068833
0,송파구,가든파이브점,"서울 송파구 충민로 10 (문정동, 가든파이브툴)",37.478962,127.119148
1,송파구,가든파이브테크노관점,서울 송파구 충민로 66,37.4775778,127.1249983
2,송파구,가락몰점,"서울 송파구 양재대로 932 (가락동, 가락몰 판매동)",37.493116,127.1164539
3,송파구,가락중앙점,서울 송파구 송이로 87 (가락동),37.4982843,127.1207781
4,송파구,개롱역점,"서울 송파구 오금로 407 (오금동, 상아아파트)",37.497728,127.135835
5,송파구,거여점,서울 송파구 오금로 497 (거여동),37.4820513,127.1429218
6,송파구,마천사거리점,"서울 송파구 마천로 264 (거여동, 흥일빌딩)",37.4980378,127.1461353
7,송파구,문정KDU타워점,"서울 송파구 정의로 70 (문정동, 케이디유타워)",37.4830797,127.12489
8,송파구,문정문현점,서울 송파구 새말로8길 30 (문정동),37.4800957,127.1266355
9,송파구,문정중앙점,서울 송파구 문정로 31-1 (문정동),37.4864701,127.1263126
10,송파구,문정테라타워점,"서울 송파구 송파대로 167 (문정동, 문정역테라타워)",37.484765,127.1211569
11,송파구,방이미성점,"서울 송파구 오금로 251 (방이동, 잠실3차한양아파트)",37.5060802,127.1222351
12,송파구,방이시장점,서울 송파구 백제고분로48길 3 (방이동),37.5118007,127.1137457
13,송파구,방이역점,서울 송파구 위례성대로18길 32 (방이동),37.5095235,127.1247104
14,송파구,방이초교점,서울 송파구 가락로 280 (방이동),37.5127115,127.1199902
15,송파구,삼전역점,서울 송파구 백제고분로 263 (삼전동),37.5027433,127.0957873
16,송파구,서울삼성내과점,"서울 송파구 백제고분로 126 (잠실동, 오룡빌딩)",37.5061551,127.0807668
17,송파구,석촌백제점,"서울 송파구 백제고분로39길 15 (석촌동, 삼경빌딩)",37.5058869,127.1043148
18,송파구,석촌사거리점,"서울 송파구 송파대로 409 (석촌동, 범양빌딩)",37.5034635,127.1082718
19,송파구,석촌역점,"서울 송파구 송파대로 456 (송파동, 웅현빌딩)",37.5071619,127.1058265
20,송파구,송파동점,"서울 송파구 백제고분로41길 5 (송파동, 태원빌딩)",37.5080488,127.107095
21,송파구,송파문정점,서울 송파구 송이로 159 (가락동),37.4929217,127.1253339
22,송파구,송파올림픽훼미리타운점,"서울 송파구 중대로 24 (문정동, 올림픽훼밀리타운 아카데미 상가)",37.4896023,127.1187913
23,송파구,송파위례점,"서울 송파구 위례광장로 188 (장지동, 아이온스퀘어)",37.4811605,127.1423292
24,송파구,송파잠실점,서울 송파구 삼전로 95 (잠실동),37.5069289,127.0898316
25,송파구,송파파인타운점,"서울 송파구 충민로2길 28 (장지동, 대진플라자2)",37.4772984,127.1275686
26,송파구,송파풍납점,서울 송파구 강동대로9길 17-1 (풍납동),37.5280621,127.11653
27,송파구,송파하비오점,"서울 송파구 송파대로 111 (문정동, 파크하비오)",37.4857615,127.1317586
28,송파구,송파한양점,"서울 송파구 가락로 165 (송파동, 위례캐슬빌)",37.5031659,127.1178357
29,송파구,오금점,"서울 송파구 오금로 306 (가락동, 가락스타클래스)",37.5028786,127.1261236
30,송파구,오금중앙점,"서울 송파구 위례성대로22길 18 (오금동, 이시돌빌딩)",37.5087113,127.1304008
31,송파구,올림픽공원점,서울 송파구 올림픽로 354 (방이동),37.5164031,127.1215351
32,송파구,올림픽프라자점,서울 송파구 양재대로 1222 (방이동),37.5157197,127.1322328
33,송파구,위례아이파크점,"서울 송파구 위례광장로 136 (장지동, 위례아이파크)",37.476128,127.1420414
34,송파구,위례포레샤인점,"서울 송파구 위례순환로 477 (장지동, 위례포레샤인23단지)",37.4762808,127.1356549
35,송파구,잠실나루역점,"서울 송파구 올림픽로35길 104 (신천동, 장미아파트)",37.5200705,127.0995
36,송파구,잠실본동점,"서울 송파구 백제고분로 172 (잠실동, 제이케이빌딩)",37.5060163,127.0825999
37,송파구,잠실역점,"서울 송파구 송파대로 567 (잠실동, 잠실주공아파트)",37.5128988,127.0829932
38,송파구,종합운동장역점,"서울 송파구 올림픽로 76 (잠실동, J타워)",37.5115209,127.0791737
0,양천구,CBS본사점,서울 양천구 목동서로 159-1 (목동),37.5282135,126.8749471
1,양천구,강서초교점,서울 양천구 오목로 48 (신월동),37.5220241,126.8429393
2,양천구,목3동점,"서울 양천구 목동중앙북로 38 (목동, 롯데캐슬위너아파트)",37.5466479,126.8679932
3,양천구,목4동점,서울 양천구 목동중앙본로7길 46 (목동),37.5394371,126.86612
4,양천구,목동남부점,서울 양천구 목동남로 46 (신정동),37.5087155,126.8647187
5,양천구,목동등촌로점,서울 양천구 등촌로 180 (목동),37.5456026,126.8627246
6,양천구,목동로데오점,서울 양천구 목동로 219 (신정동),37.5279211,126.8637907
7,양천구,목동센트럴아이파크위브점,서울 양천구 남부순환로 603 (신월동),37.5151785,126.8406797
8,양천구,목동신목점,"서울 양천구 목동중앙로 85 (목동, 강산아파트)",37.5369691,126.8714743
9,양천구,목동신트리점,"서울 양천구 신정로 312 (신정동, 뉴프라자)",37.5132891,126.8554552
10,양천구,목동아델리체점,"서울 양천구 중앙로43길 14 (신정동, 래미안 목동아델리체)",37.5180135,126.8518873
11,양천구,목동역점,서울 양천구 오목로 227 (신정동),37.526041,126.8627071
12,양천구,목동중앙점,"서울 양천구 목동서로 287 (신정동, 동문비젼오피스텔)",37.5215106,126.8690925
13,양천구,목동파라곤점,서울 양천구 목동서로 155 (목동),37.5293136,126.8751264
14,양천구,목동파리공원점,서울 양천구 목동동로 379 (목동),37.5355702,126.8787085
15,양천구,서남병원점,서울 양천구 신정동 784,37.512788,126.8325364
16,양천구,신월5동점,서울 양천구 화곡로 50 (신월동),37.5391278,126.8274379
17,양천구,신월7동점,서울 양천구 지양로 79 (신월동),37.5223947,126.8329818
18,양천구,신월사거리점,서울 양천구 남부순환로 353 (신월동),37.5356284,126.8289172
19,양천구,신월신곡시장점,서울 양천구 신월로 172 (신월동),37.5182621,126.8426399
20,양천구,신정교점,서울 양천구 신목로 36 (신정동),37.5188009,126.8737695
21,양천구,신정네거리역점,서울 양천구 중앙로 282 (신정동),37.5215126,126.8525663
22,양천구,신정서부점,서울 양천구 신정로11길 50-15 (신정동),37.5121775,126.8383361
23,양천구,신정역점,서울 양천구 오목로 155 (신정동),37.5249251,126.854642
24,양천구,양천구청점,서울 양천구 목동동로 63 (신정동),37.5152752,126.8623016
25,양천구,오목교대학학원점,서울 양천구 오목로 319 (목동),37.5250374,126.8730535
26,양천구,오목교역점,서울 양천구 신목로 102 (목동),37.5235593,126.8757535
0,영등포구,KBS별관점,"서울 영등포구 국제금융로8길 27-9 (여의도동, 동북빌딩)",37.5196169,126.9289537
1,영등포구,국회대로점,"서울 영등포구 국회대로72길 4 (여의도동, 아이비피아빌딩)",37.5302939,126.9199036
2,영등포구,국회의사당역점,"서울 영등포구 의사당대로 22 (여의도동, 이룸센터)",37.5268293,126.91783
3,영등포구,남부고용센터점,서울 영등포구 양산로 71 (양평동3가),37.5249901,126.8910908
4,영등포구,당산버드나루점,서울 영등포구 버드나루로 87 (영등포동7가),37.5247311,126.9072916
5,영등포구,당산역점,"서울 영등포구 당산로 222 (당산동5가, 당산디오빌)",37.533212,126.9022778
6,영등포구,당산중앙점,서울 영등포구 당산로 159 (당산동4가),37.5287389,126.8995556
7,영등포구,대림1동점,서울 영등포구 도림로 198 (대림동),37.4963889,126.9028182
8,영등포구,대림3동점,서울 영등포구 대림로 212 (대림동),37.4995567,126.8981452
9,영등포구,대림역점,서울 영등포구 도림로31길 2 (대림동),37.4924907,126.8959161
10,영등포구,도림사거리점,서울 영등포구 도림로 326 (신길동),37.5065486,126.9018065
11,영등포구,도림점,"서울 영등포구 도신로15길 40 (도림동, 도림빌딩)",37.5076045,126.8972947
12,영등포구,라이프점,서울 영등포구 63로 40,37.5196187,126.93912
13,영등포구,문래역점,서울 영등포구 문래로 89 (문래동3가),37.5196161,126.8919362
14,영등포구,보라매역점,서울 영등포구 여의대방로 141 (신길동),37.5074088,126.9168029
15,영등포구,서여의도점,"서울 영등포구 국회대로72길 17 (여의도동, KCC파크타운)",37.529455,126.9211706
16,영등포구,선유도역점,서울 영등포구 양평로 126 (양평동5가),37.5411416,126.8944092
17,영등포구,신길성애병원점,서울 영등포구 여의대방로53길 27 (신길동),37.5118321,126.9215338
18,영등포구,신길썬프라자점,서울 영등포구 신길로 42 (신길동),37.496429,126.9086066
19,영등포구,신길아이파크점,서울 영등포구 도림로 280 (신길동),37.5029,126.9042022
20,영등포구,신길역점,서울 영등포구 영등포로 353 (신길동),37.5150289,126.918074
21,영등포구,신길중앙점,서울 영등포구 도신로 229 (신길동),37.5121582,126.9165036
22,영등포구,신풍역점,서울 영등포구 신풍로 52-1 (신길동),37.4999047,126.9117746
23,영등포구,양평동2가점,"서울 영등포구 선유서로25길 19 (양평동2가, 오목교투웨니퍼스트)",37.5243251,126.8837313
24,영등포구,여의나루역점,서울 영등포구 여의나루로 113 (여의도동),37.5260163,126.9307571
25,영등포구,여의도농협재단점,"서울 영등포구 국제금융로8길 2 (여의도동, 농협재단빌딩)",37.5219838,126.930031
26,영등포구,여의도역점,"서울 영등포구 의사당대로 108 (여의도동, 아일렉스)",37.5210236,126.9240116
27,영등포구,영등포knk점,"서울 영등포구 영신로 220 (영등포동8가, KnK디지털타워)",37.5283387,126.905394
28,영등포구,영등포구청점,서울 영등포구 당산로 110 (당산동3가),37.5268845,126.8983667
29,영등포구,영등포그랜드점,"서울 영등포구 양산로9길 15 (양평동3가, 그랜드타워)",37.5263235,126.888719
30,영등포구,영등포본동점,서울 영등포구 영신로19길 15 (영등포동),37.5138185,126.9060085
31,영등포구,영등포시장점,서울 영등포구 영등포로35길 19 (영등포동6가),37.5216207,126.9041803
32,영등포구,영등포아크로타워점,"서울 영등포구 국회대로54길 10 (영등포동7가, 아크로타워 스퀘어)",37.5233486,126.9077563
33,영등포구,영등포에이스점,서울 영등포구 경인로 775 (문래동3가),37.5176033,126.895289
34,영등포구,영등포점,서울 영등포구 영중로 16-1 (영등포동3가),37.5187427,126.9070871
35,영등포구,영등포중앙점,서울 영등포구 영중로 37 (영등포동4가),37.5193148,126.9046511
36,영등포구,영등포코레일점,"서울 영등포구 경인로 846 (영등포동, 영등포 민자역사)",37.5154709,126.9066823
37,영등포구,영등포홈플러스점,"서울 영등포구 당산로 42 (문래동3가, 홈플러스)",37.5189549,126.8986982
38,영등포구,한강성심병원점,서울 영등포구 버드나루로 51 (영등포동2가),37.5212309,126.911986
39,영등포구,한국수출입은행점,"서울 영등포구 은행로 38 (여의도동, 한국수출입은행빌딩)",37.5285931,126.9233935
40,영등포구,힐스테이트클래시안점,"서울 영등포구 신길로28길 9 (신길동, 힐스테이트 클래시안)",37.503593,126.912645
0,용산구,IBK고객센터점,"서울 용산구 한남대로 72 (한남동, IBK기업은행고객센터)",37.5350224,127.0070392
1,용산구,동부이촌동점,서울 용산구 이촌로77길 19 (이촌동),37.5204012,126.974878
2,용산구,동자동점,서울 용산구 후암로 93 (동자동),37.5533136,126.975103
3,용산구,삼각지점,서울 용산구 한강대로 138 (한강로2가),37.5304542,126.9695065
4,용산구,숙대입구역점,서울 용산구 한강대로 289 (갈월동),37.5440208,126.9719508
5,용산구,순천향병원점,서울 용산구 대사관로 72,37.5330587,127.0059327
6,용산구,용문점,서울 용산구 원효로41길 73 (원효로2가),37.5353044,126.959382
7,용산구,용산원효점,"서울 용산구 원효로 70 (원효로4가, 신정빌딩)",37.5342316,126.9526308
8,용산구,용산중앙점,서울 용산구 한강대로 52-1 (한강로3가),37.5255891,126.9648264
9,용산구,용산청파점,"서울 용산구 청파로71길 10 (청파동1가, 새마을금고)",37.5494076,126.9668779
10,용산구,용산효창점,서울 용산구 효창원로66길 2 (효창동),37.5410418,126.9634863
11,용산구,용산후암점,"서울 용산구 후암로 40-2 (후암동, 성원빌딩)",37.5494813,126.9776645
12,용산구,원효로점,서울 용산구 원효로 257 (원효로1가),37.5399325,126.9674607
13,용산구,이태원역점,서울 용산구 이태원로 176 (이태원동),37.5344441,126.990696
0,은평구,갈현점,서울 은평구 갈현로 268 (갈현동),37.6219431,126.9127496
1,은평구,구산역점,서울 은평구 연서로 148 (대조동),37.6119567,126.9176102
2,은평구,구파발역점,"서울 은평구 진관2로 29-21 (진관동, 드림스퀘어)",37.6458965,126.9262918
3,은평구,녹번동점,"서울 은평구 진흥로 156 (녹번동, 신명빌딩)",37.6086912,126.9269617
4,은평구,녹번중앙점,"서울 은평구 통일로 635 (녹번동, 녹번동메카오피스텔)",37.603474,126.9346394
5,은평구,독바위역점,"서울 은평구 불광로 128 (불광동, 배진하우스)",37.6180771,126.9333072
6,은평구,백련산아이파크점,"서울 은평구 응암로 264 (응암동, 서울빌딩)",37.5952388,126.9188557
7,은평구,본서부병원점,"서울 은평구 응암로 337 (응암동, 빛터룩스 빌딩)",37.6012692,126.9221517
8,은평구,불광역점,서울 은평구 통일로 731 (대조동),37.6104759,126.9292194
9,은평구,불광연서로점,서울 은평구 연서로 275 (불광동),37.6116009,126.9304684
10,은평구,불광중앙점,서울 은평구 불광로 59 (불광동),37.6122908,126.9317226
11,은평구,새절역점,서울 은평구 가좌로 272 (신사동),37.5953803,126.9075953
12,은평구,수색역점,서울 은평구 수색로 250 (수색동),37.5818859,126.8963113
13,은평구,역촌동점,서울 은평구 갈현로 82 (역촌동),37.6013705,126.9134783
14,은평구,역촌사거리점,서울 은평구 서오릉로 100 (대조동),37.6088831,126.9209257
15,은평구,역촌진흥로점,서울 은평구 진흥로1길 3 (역촌동),37.6033089,126.9185098
16,은평구,연신내역점,서울 은평구 통일로 855-9 (갈현동),37.6270657,126.9156137
17,은평구,연신내중앙점,서울 은평구 통일로 825 (대조동),37.6170165,126.9226896
18,은평구,연신내통일로점,서울 은평구 통일로 876 (불광동),37.6211624,126.9202577
19,은평구,은평구청점,서울 은평구 은평로 197 (녹번동),37.6016007,126.9296014
20,은평구,은평뉴타운점,"서울 은평구 진관3로 70 (진관동, 은평뉴타운상림마을)",37.6382514,126.9178214
21,은평구,은평이마트점,"서울 은평구 은평로 111 (응암동, 은평이마트)",37.6003946,126.9202149
22,은평구,응암역점,"서울 은평구 연서로 9 (역촌동, 센타폴리스)",37.5998561,126.9154719
23,은평구,응암오거리점,서울 은평구 응암로 211 (응암동),37.5908628,126.9171141
24,은평구,응암중앙점,서울 은평구 응암로 183 (응암동),37.5883944,126.9165713
25,은평구,증산동점,서울 은평구 증산서길 78 (증산동),37.5833382,126.9065476
0,종로구,경복궁역점,서울 종로구 자하문로 7 (체부동),37.5790658,126.9697902
1,종로구,광화문점,서울 종로구 세종대로23길 15 (도렴동),37.571457,126.9756366
2,종로구,광화문트윈트리타워점,"서울 종로구 율곡로 6 (중학동, 트윈 트리 빌딩)",37.5755279,126.9800596
3,종로구,낙원동점,서울 종로구 낙원동 46-4,37.5735625,126.9879336
4,종로구,대학로점,서울 종로구 대학로10길 17 (동숭동),37.5820564,127.0031655
5,종로구,독립문역점,서울 종로구 통일로 266 (무악동),37.5771577,126.9586244
6,종로구,동대문역점,"서울 종로구 율곡로 286 (종로6가, 야드인빌딩)",37.5718325,127.0081491
7,종로구,동묘역점,서울 종로구 종로 354 (숭인동),37.5776264,127.0223891
8,종로구,방통대점,서울 종로구 대학로 81-1 (연건동),37.5783148,127.0017255
9,종로구,배화여대점,서울 종로구 필운대로1길 35 (필운동),37.5778275,126.9679917
10,종로구,북촌마을점,서울 종로구 북촌로5길 39 (화동),37.5795376,126.9836008
11,종로구,삼일빌딩점,서울 종로구 삼일대로15길 13 (관철동),37.5687786,126.986596
12,종로구,상명대점,서울 종로구 홍지동 60-2,37.6012811,126.9561897
13,종로구,성균관대점,서울 종로구 성균관로 8 (명륜2가),37.5845216,126.9994393
14,종로구,숭인점,서울 종로구 숭인동길 6 (숭인동),37.5752518,127.0215847
15,종로구,신설점,서울 종로구 난계로29길 30 (숭인동),37.5741948,127.0214683
16,종로구,종각점,서울 종로구 삼일대로19길 24 (관철동),37.5694966,126.9866708
17,종로구,종로3가점,서울 종로구 종로 126 (종로3가),37.5700276,126.9917137
18,종로구,종로4가점,서울 종로구 김상옥로 1 (인의동),37.5734546,126.9978915
19,종로구,종로5가점,서울 종로구 대학로 33 (효제동),37.5738196,127.0027668
20,종로구,종로교차로점,서울 종로구 동호로 406-1 (종로5가),37.5705613,127.002241
21,종로구,종로구청점,서울 종로구 수송동 58 두산위브파빌리온 1층,37.5724618,126.981801
22,종로구,종로르메이에르점,서울 종로구 종로1가 르메이에르종로타운,37.5709593,126.9798759
23,종로구,종로삼일대로점,서울 종로구 삼일대로 390-1 (관철동),37.5690625,126.9872746
24,종로구,종로타워점,"서울 종로구 종로 51 (종로2가, 종로타워)",37.57079,126.98356
25,종로구,창덕궁점,서울 종로구 돈화문로 41-1 (묘동),37.5741088,126.991447
26,종로구,창신동점,서울 종로구 종로 316-1 (창신동),37.5745846,127.008896
27,종로구,창신중앙점,서울 종로구 지봉로 64 (숭인동),37.5756904,127.0158154
28,종로구,탑골공원점,서울 종로구 낙원동 205,37.5709747,126.989189
29,종로구,혜화동로터리점,서울 종로구 혜화로 3-1 (혜화동),37.5860305,127.0005638
30,종로구,혜화역점,서울 종로구 창경궁로 258-15 (명륜2가),37.5846573,127.0002379
0,중구,IBK본점,"서울 중구 을지로 79 (을지로2가, 기업은행)",37.5656698,126.9894519
1,중구,YTN점,서울 중구 세종대로1길 11 (봉래동1가),37.5597113,126.9746181
2,중구,광희동점,서울 중구 마른내로 165-1 (광희동1가),37.564787,127.006136
3,중구,다동점,서울 중구 다동길 46 (다동),37.5678216,126.9817119
4,중구,동국대후문점,"서울 중구 창경궁로 2 (충무로5가, 남경빌딩)",37.5624822,126.9986871
5,중구,동대문점,서울 중구 을지로43길 38 (을지로6가),37.5676676,127.0077516
6,중구,동평화점,서울 중구 청계천로 318 (신당동),37.5694218,127.0132185
7,중구,만리동고개점,"서울 중구 만리재로 175 (만리동2가, 서울역센트럴자이),402동 102호",37.554538,126.9636814
8,중구,명동역점,서울 중구 퇴계로 103 (충무로1가),37.5609432,126.9825464
9,중구,명동중앙점,"서울 중구 명동7길 21 (을지로2가, 명동아르누보센텀)",37.5646918,126.9838429
10,중구,서소문점,서울 중구 서소문로11길 8 (서소문동),37.5632228,126.973086
11,중구,서울시청점,"서울 중구 세종대로20길 23 (무교동, 원창빌딩)",37.5671385,126.978497
12,중구,신당점,서울 중구 다산로35길 11 (신당동),37.563518,127.0148075
13,중구,신당중앙점,서울 중구 퇴계로 455 (황학동),37.5674438,127.0198915
14,중구,약수역점,서울 중구 동호로 186-13 (신당동),37.5545654,127.0114859
15,중구,오장동점,서울 중구 마른내로 109-1 (오장동),37.5645748,127.0001136
16,중구,을지로3가점,서울 중구 수표로 45 (저동2가),37.5634861,126.9902353
17,중구,정동점,서울 중구 정동길 2-1 (정동),37.5679414,126.9693423
18,중구,중림점,서울 중구 청파로 464 (중림동),37.5607773,126.9682129
19,중구,청구역점,서울 중구 다산로 181-2 (신당동),37.5597511,127.0132283
20,중구,충무로3가점,서울 중구 퇴계로27길 31 (충무로3가),37.5625251,126.9912341
21,중구,충무로점,서울 중구 퇴계로 188 (필동1가),37.5609015,126.9924937
22,중구,충무아트홀점,서울 중구 퇴계로 381-1 (신당동),37.5652402,127.0139856
23,중구,충무필동점,서울 중구 퇴계로 218-5 (필동2가),37.561541,126.9936459
24,중구,충정로역점,"서울 중구 중림로 10 (중림동, 중림동 삼성 사이버 빌리지)",37.5587312,126.9649372
25,중구,태평로점,서울 중구 세종대로11길 26 (서소문동),37.5621115,126.9740103
26,중구,퇴계로2길점,서울 중구 퇴계로2길 1 (남창동),37.5575233,126.9773972
27,중구,한국은행점,서울 중구 남대문로 29-2 (남대문로3가),37.5619687,126.9803334
28,중구,황학롯데캐슬점,"서울 중구 청계천로 400 (황학동, 롯데캐슬베네치아)",37.571596,127.022479
29,중구,회현SK리더스점,"서울 중구 퇴계로 72 (회현동1가, 리더스뷰남산)",37.5592302,126.9806639
0,중랑구,금란망우점,서울 중랑구 망우로 460 (망우동),37.6000681,127.1031213
1,중랑구,동원사거리점,"서울 중랑구 겸재로 240 (면목동, 행복오피스텔)",37.589608,127.0941645
2,중랑구,망우동점,서울 중랑구 망우로 416 (망우동),37.5991279,127.0983355
3,중랑구,망우중앙점,"서울 중랑구 용마산로115길 109 (망우동, 한일써너스빌리젠시2단지)",37.5976442,127.0943462
4,중랑구,먹골역점,서울 중랑구 동일로157길 13 (묵동),37.6097015,127.0768818
5,중랑구,면목경남아너스빌점,서울 중랑구 면목로27길 92 (면목동),37.5742279,127.0805033
6,중랑구,면목본동점,서울 중랑구 면목로 370 (면목동),37.5849094,127.0885874
7,중랑구,묵동자이점,"서울 중랑구 동일로 932 (묵동, 묵동자이아파트)",37.613816,127.077513
8,중랑구,봉화산역점,서울 중랑구 신내로 211 (신내동),37.6163947,127.0926039
9,중랑구,사가정아이파크점,"서울 중랑구 동일로92길 57 (면목동, 메디포레)",37.5834599,127.0831625
10,중랑구,사가정역점,서울 중랑구 면목로 325 (면목동),37.5810983,127.0881584
11,중랑구,상봉엠코점,"서울 중랑구 망우로 353 (상봉동, 상봉 프레미어스 엠코)",37.598081,127.0905951
12,중랑구,상봉역점,서울 중랑구 망우로 277 (상봉동),37.5960169,127.0834048
13,중랑구,상봉중앙점,서울 중랑구 망우로 316 (상봉동),37.5964462,127.0875204
14,중랑구,서울중랑경찰서점,서울 중랑구 신내역로3길 40-11 (신내동),37.6126681,127.1032127
15,중랑구,서울중화초등학교점,"서울 중랑구 신내로7가길 7 (신내동, 제이리옴)",37.602308,127.0954454
16,중랑구,서일중앙점,서울 중랑구 용마산로 394,37.5866117,127.0955358
17,중랑구,신내동점,서울 중랑구 봉화산로 215 (신내동),37.6076181,127.0965284
18,중랑구,양원남부점,서울 중랑구 양원역로 25-10 (망우동),37.6030497,127.107406
19,중랑구,양원역점,서울 중랑구 양원역로14가길 24 (망우동),37.6016933,127.1083226
20,중랑구,용마산역점,서울 중랑구 면목로 254-1 (면목동),37.5753971,127.0856773
21,중랑구,우림시장점,서울 중랑구 봉우재로 240 (망우동),37.595272,127.0993536
22,중랑구,중랑교차로점,서울 중랑구 동일로 683 (면목동),37.5913966,127.0798414
23,중랑구,중랑역점,서울 중랑구 망우로 198 (상봉동),37.593212,127.0748661
24,중랑구,중화동점,서울 중랑구 동일로129길 1 (중화동),37.5992928,127.0783484
25,중랑구,중화역점,"서울 중랑구 동일로 815, 1층",37.6030917,127.0788763
26,중랑구,화랑대역점,"서울 중랑구 신내로25가길 2 (묵동, 현동학당)",37.6194506,127.0841605
